[{"OBJECT_NAME":"STARLINK-2031","OBJECT_ID":"2021-012AE","EPOCH":"2026-03-09T22:49:12.010080","MEAN_MOTION":15.30088905,"ECCENTRICITY":0.0001163,"INCLINATION":53.1588,"RA_OF_ASC_NODE":48.339,"ARG_OF_PERICENTER":82.9561,"MEAN_ANOMALY":277.1572,"EPHEMERIS_TYPE":0,"CLASSIFICATION_TYPE":"U","NORAD_CAT_ID":47648,"ELEMENT_SET_NO":999,"REV_AT_EPOCH":28034,"BSTAR":0.0019887942,"MEAN_MOTION_DOT":0.00058807,"MEAN_MOTION_DDOT":0},{"OBJECT_NAME":"NOAA 16 DEB","OBJECT_ID":"2000-055BK","EPOCH":"2026-03-09T02:17:10.174560","MEAN_MOTION":15.30191008,"ECCENTRICITY":0.00052528,"INCLINATION":98.9831,"RA_OF_ASC_NODE":305.6383,"ARG_OF_PERICENTER":26.64,"MEAN_ANOMALY":333.5104,"EPHEMERIS_TYPE":0,"CLASSIFICATION_TYPE":"U","NORAD_CAT_ID":41128,"ELEMENT_SET_NO":999,"REV_AT_EPOCH":53406,"BSTAR":0.017668961,"MEAN_MOTION_DOT":0.00549039,"MEAN_MOTION_DDOT":0}]
